algorithm,apogee,argOfPerigee,bStar,classificationMarking,elset_created_at,elset_created_by,dataMode,eccentricity,idElset,idOnOrbit,inclination,line1,line2,meanAnomaly,meanMotion,meanMotionDDot,meanMotionDot,origNetwork,perigee,period,raan,revNo,satNo,semiMajorAxis,source,__START_AT,__END_AT,COUNTRY,LAUNCH,LAUNCH_NUM,LAUNCH_PIECE,NORAD_CAT_ID,OBJECT_ID,OBJECT_NAME,OBJECT_NUMBER,OBJECT_TYPE,RCS_SIZE,SATNAME,SITE,satcat_current_fetch_date
SGP4,6919.287,80.8022,5.0716E-4,U,2024-01-31T23:05:16.580Z,system.ob-ingest,REAL,1.943E-4,5db807e0-c162-44aa-a5e4-b1e248041f46,49456,53.2189,1 49456U 21104BA  24031.42098470 +.00007788 +00000+0 +50716-3 0 99990,2 49456  53.2189  68.0614 0001943  80.8022 279.3190 15.08819495122792,279.319,15.08819495,0.0,7.788E-5,OPS1,6916.599,95.439,68.0614,12279,49456,6917.943,18th SPCS,2024-01-31T10:06:13.078080Z,2024-02-01T11:32:23.327520Z,US,2021-11-13,104,BA,49456,2021-104BA,STARLINK-3124,49456,PAYLOAD,LARGE,STARLINK-3124,AFETR,2024-08-21
SGP4,6919.261,117.3299,-1.478E-5,U,2024-02-01T05:05:14.866Z,system.ob-ingest,REAL,1.98E-4,baa5f16e-1a06-47bd-a8e1-c91ada9a5409,49752,53.2202,1 49752U 21115AE  24031.88833810 -.00000523 +00000+0 -14780-4 0 99990,2 49752  53.2202 345.9265 0001980 117.3299 242.7895 15.08836593119766,242.7895,15.08836593,0.0,-5.23E-6,OPS1,6916.521,95.438,345.9265,11976,49752,6917.891,18th SPCS,2024-01-31T21:19:12.411840Z,2024-02-01T03:40:45.132960Z,US,2021-12-02,115,AE,49752,2021-115AE,STARLINK-3209,49752,PAYLOAD,LARGE,STARLINK-3209,AFETR,2024-08-21
SGP4,6918.951,98.6006,1.2595E-4,U,2024-01-31T07:05:13.477Z,system.ob-ingest,REAL,1.501E-4,080f888a-1836-48dd-8d8d-a9cf4fc7c8ff,49763,53.2199,1 49763U 21115AR  24031.11457971 +.00001717 +00000+0 +12595-3 0 99993,2 49763  53.2199 349.3843 0001501  98.6006 261.5157 15.08829415120766,261.5157,15.08829415,0.0,1.717E-5,OPS1,6916.874,95.438,349.3843,12076,49763,6917.913,18th SPCS,2024-01-31T02:44:59.686944Z,2024-02-01T04:11:09.989088Z,US,2021-12-02,115,AR,49763,2021-115AR,STARLINK-3198,49763,PAYLOAD,LARGE,STARLINK-3198,AFETR,2024-08-21
SGP4,6918.908,91.6817,-7.9198E-5,U,2024-01-31T23:05:16.488Z,system.ob-ingest,REAL,1.522E-4,f7a1f7b8-2dd0-4027-9074-78195c24cdba,50158,53.2177,1 50158U 21125C   24031.57921186 -.00001549 +00000+0 -79198-4 0 99996,2 50158  53.2177 107.3159 0001522  91.6817 268.4349 15.08848339120563,268.4349,15.08848339,0.0,-1.549E-5,OPS1,6916.802,95.437,107.3159,12056,50158,6917.855,18th SPCS,2024-01-31T13:54:03.904704Z,2024-02-01T10:34:05.102112Z,US,2021-12-18,125,C,50158,2021-125C,STARLINK-3309,50158,PAYLOAD,LARGE,STARLINK-3309,AFWTR,2024-08-21
SGP4,6919.13,99.3554,3.383E-5,U,2024-01-31T23:05:16.667Z,system.ob-ingest,REAL,1.811E-4,441fa30f-9673-4a21-ad75-f84aa0d100a6,51109,53.2196,1 51109U 22005F   24031.67949163 +.00000250 +00000+0 +33830-4 0 99996,2 51109  53.2196 136.8436 0001811  99.3554 260.7642 15.08841107114043,260.7642,15.08841107,0.0,2.5E-6,OPS1,6916.624,95.437,136.8436,11404,51109,6917.877,18th SPCS,2024-01-31T16:18:28.076832Z,2024-02-01T11:23:05.771040Z,US,2022-01-19,5,F,51109,2022-005F,STARLINK-3358,51109,PAYLOAD,LARGE,STARLINK-3358,AFETR,2024-08-21
SGP4,6918.685,89.742,-1.4387E-5,U,2024-01-31T15:05:13.609Z,system.ob-ingest,REAL,1.171E-4,c5a876b9-b7d4-4daf-be93-89340a4f0247,51125,53.2176,1 51125U 22005X   24031.49825551 -.00000517 +00000+0 -14387-4 0 99992,2 51125  53.2176 147.6725 0001171  89.7420 270.3706 15.08841860113878,270.3706,15.0884186,0.0,-5.17E-6,OPS1,6917.065,95.437,147.6725,11387,51125,6917.875,18th SPCS,2024-01-31T11:57:29.276064Z,2024-02-01T11:48:16.353216Z,US,2022-01-19,5,X,51125,2022-005X,STARLINK-3387,51125,PAYLOAD,LARGE,STARLINK-3387,AFETR,2024-08-21
SGP4,6918.752,94.327,4.7073E-5,U,2024-01-31T05:05:14.493Z,system.ob-ingest,REAL,1.249E-4,6b0efe49-a833-49be-b02e-940e450c5cb6,51729,53.2173,1 51729U 22016R   24030.70425539 +.00000461 +00000+0 +47073-4 0 99993,2 51729  53.2173 171.2320 0001249  94.3270 265.7865 15.08837619107470,265.7865,15.08837619,0.0,4.61E-6,OPS1,6917.024,95.438,171.232,10747,51729,6917.888,18th SPCS,2024-01-30T16:54:07.665696Z,2024-02-02T14:51:05.446656Z,US,2022-02-21,16,R,51729,2022-016R,STARLINK-3523,51729,PAYLOAD,LARGE,STARLINK-3523,AFETR,2024-08-21
SGP4,6918.884,81.5333,4.5722E-5,U,2024-01-31T15:05:13.729Z,system.ob-ingest,REAL,1.441E-4,2d8998cc-47c8-426d-b7aa-1b07bec5f3c0,51775,53.2164,1 51775U 22017H   24031.42001791 +.00000440 +00000+0 +45722-4 0 99991,2 51775  53.2164 188.0198 0001441  81.5333 278.5822 15.08837658108077,278.5822,15.08837658,0.0,4.4E-6,OPS1,6916.891,95.438,188.0198,10807,51775,6917.888,18th SPCS,2024-01-31T10:04:49.547424Z,2024-02-01T09:55:36.726528Z,US,2022-02-25,17,H,51775,2022-017H,STARLINK-3620,51775,PAYLOAD,LARGE,STARLINK-3620,AFWTR,2024-08-21
SGP4,6918.787,92.7667,3.9403E-5,U,2024-02-01T05:05:14.386Z,system.ob-ingest,REAL,1.298E-4,9ec956f5-8271-4520-a7b8-d882d6b417a7,51784,53.2162,1 51784U 22017S   24031.87541604 +.00000339 +00000+0 +39403-4 0 99998,2 51784  53.2162 195.9716 0001298  92.7667 267.3473 15.08837187106367,267.3473,15.08837187,0.0,3.39E-6,OPS1,6916.991,95.438,195.9716,10636,51784,6917.889,18th SPCS,2024-01-31T21:00:35.945856Z,2024-02-01T11:19:04.423872Z,US,2022-02-25,17,S,51784,2022-017S,STARLINK-3632,51784,PAYLOAD,LARGE,STARLINK-3632,AFWTR,2024-08-21
SGP4,6918.791,84.7888,1.495E-5,U,2024-01-31T23:05:16.454Z,system.ob-ingest,REAL,1.292E-4,ae3024a8-9918-4152-998c-29c1634f469f,51986,53.2158,1 51986U 22025AG  24030.96920049 -.00000050 +00000+0 +14950-4 0 99995,2 51986  53.2158 249.8846 0001292  84.7888 275.3252 15.08834453105017,275.3252,15.08834453,0.0,-5.0E-7,OPS1,6917.004,95.438,249.8846,10501,51986,6917.897,18th SPCS,2024-01-30T23:15:38.922336Z,2024-02-01T00:41:49.071552Z,US,2022-03-09,25,AG,51986,2022-025AG,STARLINK-3645,51986,PAYLOAD,LARGE,STARLINK-3645,AFETR,2024-08-21
SGP4,6918.795,88.9302,2.8119E-4,U,2024-02-01T05:05:14.368Z,system.ob-ingest,REAL,1.34E-4,f559e100-c218-45cf-b9a1-ca3dc25921d9,51987,53.2139,1 51987U 22025AH  24031.92601779 +.00004191 +00000+0 +28119-3 0 99999,2 51987  53.2139 245.7478 0001340  88.9302 271.1843 15.08843985105159,271.1843,15.08843985,0.0,4.191E-5,OPS1,6916.941,95.437,245.7478,10515,51987,6917.868,18th SPCS,2024-01-31T22:13:27.937056Z,2024-02-01T10:56:33.174528Z,US,2022-03-09,25,AH,51987,2022-025AH,STARLINK-3644,51987,PAYLOAD,LARGE,STARLINK-3644,AFETR,2024-08-21
SGP4,6918.924,100.9773,1.1318E-4,U,2024-02-01T07:05:14.230Z,system.ob-ingest,REAL,1.483E-4,2ebb8c33-150f-4aec-8f97-e33223a7981e,52001,53.2163,1 52001U 22025AX  24031.97297823 +.00001513 +00000+0 +11318-3 0 99991,2 52001  53.2163 225.5447 0001483 100.9773 259.1386 15.08834332106550,259.1386,15.08834332,0.0,1.513E-5,OPS1,6916.872,95.438,225.5447,10655,52001,6917.898,18th SPCS,2024-01-31T23:21:05.319072Z,2024-02-02T11:54:57.161088Z,US,2022-03-09,25,AX,52001,2022-025AX,STARLINK-3659,52001,PAYLOAD,LARGE,STARLINK-3659,AFETR,2024-08-21
SGP4,6918.891,85.6598,6.1264E-5,U,2024-01-31T07:05:13.362Z,system.ob-ingest,REAL,1.455E-4,b5cda51e-1e34-4891-839e-c3c968b9c9cd,52138,53.2168,1 52138U 22029BC  24031.01062114 +.00000687 +00000+0 +61264-4 0 99991,2 52138  53.2168 279.8564 0001455  85.6598 274.4560 15.08838608104890,274.456,15.08838608,0.0,6.87E-6,OPS1,6916.878,95.438,279.8564,10489,52138,6917.885,18th SPCS,2024-01-31T00:15:17.666496Z,2024-02-01T14:24:32.754240Z,US,2022-03-19,29,BC,52138,2022-029BC,STARLINK-3723,52138,PAYLOAD,LARGE,STARLINK-3723,AFETR,2024-08-21
SGP4,6918.988,98.0313,8.6049E-5,U,2024-02-01T05:05:14.746Z,system.ob-ingest,REAL,1.556E-4,9548eb45-d256-4393-8b5a-39c1bce19ea2,52457,53.2173,1 52457U 22049G   24031.70613904 +.00001081 +00000+0 +86049-4 0 99999,2 52457  53.2173 276.7225 0001556  98.0313 262.0856 15.08829890096170,262.0856,15.0882989,0.0,1.081E-5,OPS1,6916.835,95.438,276.7225,9617,52457,6917.911,18th SPCS,2024-01-31T16:56:50.413056Z,2024-02-01T15:12:14.528736Z,US,2022-05-06,49,G,52457,2022-049G,STARLINK-3899,52457,PAYLOAD,LARGE,STARLINK-3899,AFETR,2024-08-21
SGP4,6918.757,93.6301,7.361E-5,U,2024-02-01T08:05:29.076Z,system.ob-ingest,REAL,1.242E-4,074157d6-c7d5-48eb-9694-f68fb4796694,52839,53.2157,1 52839U 22062K   24031.95039818 +.00000884 +00000+0 +73610-4 0 99991,2 52839  53.2157 240.6365 0001242  93.6301 266.4834 15.08834370090370,266.4834,15.0883437,0.0,8.84E-6,OPS1,6917.038,95.438,240.6365,9037,52839,6917.898,18th SPCS,2024-01-31T22:48:34.402752Z,2024-02-01T22:39:21.332160Z,US,2022-06-17,62,K,52839,2022-062K,STARLINK-4048,52839,PAYLOAD,LARGE,STARLINK-4048,AFETR,2024-08-21
SGP4,6918.846,85.236,5.0176E-5,U,2024-01-31T23:05:16.216Z,system.ob-ingest,REAL,1.385E-4,e2021238-13ba-400c-a53c-348a83fa0ddd,52863,53.2154,1 52863U 22062AK  24031.54651989 +.00000511 +00000+0 +50176-4 0 99991,2 52863  53.2154 232.4484 0001385  85.2360 274.8790 15.08837552090453,274.879,15.08837552,0.0,5.11E-6,OPS1,6916.93,95.438,232.4484,9045,52863,6917.888,18th SPCS,2024-01-31T13:06:59.318496Z,2024-02-01T14:33:09.611136Z,US,2022-06-17,62,AK,52863,2022-062AK,STARLINK-4270,52863,PAYLOAD,LARGE,STARLINK-4270,AFETR,2024-08-21
SGP4,6918.538,49.7745,2.0675E-4,U,2024-02-01T05:05:14.771Z,system.ob-ingest,REAL,1.046E-4,f88bfb70-b876-4e39-933b-c4fa3ef8789a,52865,53.2171,1 52865U 22062AM  24031.93289257 +.00003006 +00000+0 +20675-3 0 99993,2 52865  53.2171 230.7155 0001046  49.7745 310.3338 15.08861690090023,310.3338,15.0886169,0.0,3.006E-5,OPS1,6917.09,95.436,230.7155,9002,52865,6917.814,18th SPCS,2024-01-31T22:23:21.918048Z,2024-02-01T12:41:51.576288Z,US,2022-06-17,62,AM,52865,2022-062AM,STARLINK-4274,52865,PAYLOAD,LARGE,STARLINK-4274,AFETR,2024-08-21
